{"type":"FeatureCollection","features":[{"type":"Feature","properties":{"name":"Kert","name_alt":"Oriental","admin":"Morocco","iso_a2":"MA","name_zh":"克尔特","historicalRegion":"Kert"},"geometry":{"type":"MultiPolygon","coordinates":[[[[-3.4274,34.6381],[-3.4414,34.6457],[-3.4505,34.6446],[-3.4548,34.6388],[-3.4558,34.6287],[-3.4534,34.6223],[-3.458,34.6197],[-3.4682,34.621],[-3.474,34.6152],[-3.4812,34.5926],[-3.4871,34.581],[-3.4908,34.5588],[-3.4975,34.5505],[-3.5059,34.5473],[-3.5157,34.5494],[-3.528,34.5568],[-3.5391,34.5604],[-3.552,34.5612],[-3.5658,34.5657],[-3.5739,34.5741],[-3.5757,34.5825],[-3.5755,34.5955],[-3.5838,34.6058],[-3.5924,34.6116],[-3.6035,34.6121],[-3.6132,34.6093],[-3.6351,34.5977],[-3.6435,34.5967],[-3.6476,34.6036],[-3.6439,34.6098],[-3.6248,34.6211],[-3.6212,34.6349],[-3.6326,34.6683],[-3.6321,34.6768],[-3.6256,34.6824],[-3.6171,34.6838],[-3.5882,34.6821],[-3.5792,34.6835],[-3.5727,34.6882],[-3.5723,34.6949],[-3.5743,34.7],[-3.5823,34.7053],[-3.5993,34.7105],[-3.6063,34.7158],[-3.6086,34.7236],[-3.5993,34.7398],[-3.5849,34.7572],[-3.5811,34.7872],[-3.5924,34.7985],[-3.5929,34.8062],[-3.5816,34.8205],[-3.5847,34.8275],[-3.5929,34.8311],[-3.6094,34.831],[-3.6201,34.827],[-3.6361,34.8265],[-3.6525,34.8364],[-3.6767,34.8479],[-3.6852,34.8483],[-3.6904,34.8441],[-3.7014,34.8433],[-3.7062,34.8468],[-3.7142,34.8475],[-3.7214,34.8434],[-3.7299,34.8425],[-3.7371,34.8481],[-3.7383,34.8525],[-3.7229,34.8635],[-3.7261,34.8693],[-3.7338,34.8708],[-3.7548,34.8692],[-3.7705,34.8647],[-3.7808,34.8683],[-3.7825,34.8736],[-3.7828,34.8868],[-3.7871,34.8902],[-3.797,34.8934],[-3.7991,34.9059],[-3.796,34.9363],[-3.7996,34.9478],[-3.7926,34.9995],[-3.7932,35.0142],[-3.8012,35.0235],[-3.7991,35.037],[-3.8014,35.0755],[-3.8036,35.088],[-3.811,35.1108],[-3.8105,35.1221],[-3.8025,35.1466],[-3.799989816616575,35.20832753475575],[-3.806153630015485,35.20789078822836],[-3.798436490670835,35.20843759806702],[-3.7793718145323334,35.21251312305768],[-3.7695279533388732,35.21652467891644],[-3.762144026128955,35.22358997349816],[-3.759685359354625,35.22834539225924],[-3.755348574410596,35.236963309761194],[-3.753786485524248,35.24204391906919],[-3.7506836039521723,35.252135872948685],[-3.7495039667198005,35.25597257901274],[-3.747141,35.263658],[-3.7433738709910362,35.26701464433235],[-3.739472929915977,35.27049051991804],[-3.7367708108904014,35.27289820292835],[-3.731666354310442,35.27744645312315],[-3.729994060957031,35.278936525269174],[-3.721135113771412,35.283926208570584],[-3.7160584908478067,35.28555384412822],[-3.7083480072007986,35.28802593188013],[-3.684356375553047,35.289124156738986],[-3.6779629390609347,35.28840369333674],[-3.6698600548888947,35.28581845547105],[-3.659297487460872,35.279871284993845],[-3.6448363655295974,35.26994115799606],[-3.642182826481904,35.26794070348966],[-3.6321937124965986,35.260410093339324],[-3.6296676970122874,35.25850577651262],[-3.6249894738922754,35.25497894975252],[-3.620014074891613,35.25122808753677],[-3.61712118165899,35.2490471882925],[-3.6150003599069707,35.24744833960219],[-3.612213,35.245347],[-3.60386146228492,35.24061153932299],[-3.5747378073669935,35.23118792627101],[-3.5657813794847644,35.23002103699309],[-3.5579831194621727,35.22900503975328],[-3.5351751827692994,35.226033504993154],[-3.5141312914874114,35.22265070355206],[-3.489329,35.211005],[-3.481801992970852,35.21079919573165],[-3.4746198204653402,35.21093000716528],[-3.4555532075852913,35.211646918051116],[-3.4505752923144675,35.21073059371748],[-3.446182666014946,35.20954318131104],[-3.442081933136379,35.20833503485593],[-3.423248,35.200832],[-3.402275546918551,35.19722816181444],[-3.388549372008067,35.19630576113331],[-3.365984870132726,35.194789423768036],[-3.358444548448344,35.195138514673225],[-3.350777053531327,35.19644323908045],[-3.3353886007618123,35.199061785311656],[-3.319244,35.201809],[-3.3138035845030274,35.20340546308826],[-3.3124946506221793,35.2037895632782],[-3.3092401404620224,35.20474458322915],[-3.3052021086624763,35.20592952373981],[-3.2809143370375495,35.21305665050374],[-3.2781532386280063,35.21386688121063],[-3.2607797571368726,35.21896504364521],[-3.2521441753343145,35.22149911252306],[-3.2406963361792025,35.22485842444725],[-3.239582563450171,35.225185255559985],[-3.229545694887307,35.22813052512465],[-3.2222741356763103,35.23026432830216],[-3.219795287620138,35.23099173403529],[-3.2111405473654173,35.23353142486641],[-3.2113666562725003,35.2334650743231],[-3.2092799548165045,35.23407740657099],[-3.200491177359539,35.23665642995786],[-3.1976899377491277,35.23747843990212],[-3.19739379262149,35.23756534222885],[-3.1954073035803545,35.238148267637975],[-3.1882919490407464,35.24173595615932],[-3.174267836943689,35.24892299110542],[-3.162900621684606,35.25871172959726],[-3.146118442911132,35.27333726370069],[-3.14396100271226,35.27521745551789],[-3.1363214369632098,35.28187527575126],[-3.1337458400639457,35.28411988777663],[-3.128651,35.28856],[-3.1295825749138877,35.28774813993958],[-3.100413,35.289537],[-3.08967,35.286282],[-3.087951759771612,35.28650362492878],[-3.083718992483629,35.28704958278335],[-3.083208217894403,35.287115464363865],[-3.0749699010205065,35.28965730066736],[-3.0729945342940557,35.29131279975925],[-3.0675612412824265,35.29586628925882],[-3.0646712009678625,35.29828835046508],[-3.059421975350603,35.30268757827737],[-3.058043538920612,35.30384280693821],[-3.052101754953777,35.30882244835343],[-3.0471764444546365,35.312950212048854],[-3.0432423151607986,35.3187992387633],[-3.030972669022713,35.3435936784939],[-3.0277585517714622,35.35008875060734],[-3.0270077793588612,35.35160590775484],[-3.0268250130639833,35.35197524097212],[-3.02591237258671,35.35381950029752],[-3.0214925943933992,35.36275096603038],[-3.019289881933726,35.36720219638459],[-3.0170916691314678,35.37164433385353],[-3.0156811164850352,35.37449477160742],[-3.0140984330976117,35.37769305030433],[-3.012468635472843,35.380986537217126],[-3.010844973744549,35.38426762474092],[-3.0085185081427213,35.38896893482767],[-3.0081841002772953,35.38964470457453],[-3.0072714598000188,35.39148896389993],[-3.0074821145232926,35.391063273885614],[-3.006256,35.393541],[-3.0054180675709943,35.39456123347217],[-3.004339041115804,35.39587501352033],[-3.0032530976009872,35.39719721550745],[-3.0025470696659413,35.39805684727092],[-3.004415912821283,35.39578141756405],[-3.0040479844884156,35.396229392588715],[-3.0007288064201627,35.400270692875104],[-3.0009003913148953,35.40006177787568],[-2.998031240282181,35.40355514299553],[-2.9950869076064177,35.40714004631831],[-2.993838143128838,35.40866049268699],[-2.991214225381398,35.41185527143225],[-2.9904225618089035,35.41281916976987],[-2.9888547588455943,35.414728064813865],[-2.987751287466832,35.41607160803671],[-2.982818,35.435004],[-2.982647241474588,35.434104991474534],[-2.980439773742487,35.43904693593357],[-2.9802032582825366,35.439449007371834],[-2.9792623821461914,35.44104847753522],[-2.975361472606701,35.4441666009108],[-2.9738034979730488,35.44468820109537],[-2.979344626876639,35.440908663177765],[-2.962767489111067,35.44390038927203],[-2.9614847261906756,35.44334007481347],[-2.9553413505985664,35.4388092199652],[-2.954774785124142,35.43776436336648],[-2.9535935235422235,35.42864617795406],[-2.9544750400156543,35.42582125493401],[-2.9553755044706773,35.42293561088265],[-2.95607208441439,35.42070333868172],[-2.956940481529396,35.41792045818582],[-2.9575196860872697,35.41606432918747],[-2.9573837017902855,35.41531231239732],[-2.95734268775077,35.41520760190963],[-2.956261945869996,35.41244842454649],[-2.9552856017982174,35.40995577897643],[-2.954600477195603,35.40820662839007],[-2.953171886013884,35.404559377811644],[-2.9577367237048158,35.38952813444655],[-2.9588307021136404,35.38621974686335],[-2.9593999066161905,35.38449837001226],[-2.9612831141614997,35.3788032114888],[-2.963043,35.373481],[-2.9612768314067415,35.36835039008122],[-2.959249093821215,35.362459938507854],[-2.9580785996824184,35.35905972583206],[-2.955754693943423,35.35230892419268],[-2.9540852016643115,35.34745915295383],[-2.952158336357369,35.34186172907613],[-2.9556882428633444,35.323226091715924],[-2.9543113156859997,35.32437356708503],[-2.966536293151282,35.31050040886849],[-2.965812737151658,35.3041539137157],[-2.965304007944065,35.299691719425624],[-2.9646114650579705,35.29361724824166],[-2.9640750941876295,35.288912601841815],[-2.9553055510573594,35.278727270154775],[-2.9338662581587913,35.270630694783826],[-2.9314279036745714,35.271362937498715],[-2.9275205183142603,35.27253633311566],[-2.929741274447347,35.271869435619614],[-2.9282188135292997,35.27232663366984],[-2.9256407896521326,35.273100819382],[-2.9244767045305395,35.27345039646577],[-2.920320573588622,35.27469849087699],[-2.9213739204429916,35.27438216871574],[-2.91728363338254,35.27561049007803],[-2.919125895262742,35.27505725516103],[-2.913998778634132,35.27659693851059],[-2.9153275860910894,35.276197894980974],[-2.912913,35.276923],[-2.9132649557288204,35.27681730699266],[-2.9138891484192846,35.27662986068277],[-2.9246519016137613,35.27339778443225],[-2.907948,35.250963],[-2.8767843774015405,35.22944138631895],[-2.8452578466807985,35.19562097549804],[-2.8458545092768683,35.196184299843715],[-2.848849860952302,35.19901228761058],[-2.8537045828270546,35.20359575411501],[-2.851575553187714,35.20158568303563],[-2.8497398164218857,35.199852517224244],[-2.8498957807630054,35.19999976712894],[-2.853654968936633,35.20354891237808],[-2.8577133583421475,35.20738054112675],[-2.8630527875817653,35.21242163219313],[-2.8664602064539006,35.21563866309004],[-2.8677170056987777,35.21682523925038],[-2.868276,35.217353],[-2.8705989861367427,35.22065341234765],[-2.87373874922938,35.22511427103111],[-2.883168,35.238511],[-2.912423730963109,35.234401737811396],[-2.911717408544775,35.23794546123035],[-2.911157714619272,35.239878347328485],[-2.910879307499121,35.24083981792454],[-2.9117954892023206,35.23767581203349],[-2.9096026846117673,35.24524859657852],[-2.909907362698666,35.24419639999082],[-2.908395777917375,35.24941661246191],[-2.907948,35.250963],[-2.909670070301545,35.24501588213041],[-2.910489819514753,35.24218490293631],[-2.911240755516973,35.23959156809178],[-2.912343,35.235785],[-2.9125561471934533,35.23213288881545],[-2.9130505919685845,35.22366096261205],[-2.912983622677238,35.2159613652432],[-2.912986786217677,35.21599061284814],[-2.9132482872730048,35.21840824578292],[-2.9131066593484616,35.21709886546539],[-2.9127425428505123,35.213732530914896],[-2.9124388436293613,35.21092476695233],[-2.912141799344511,35.20817852929282],[-2.911884073253547,35.20579579670734],[-2.911702320716535,35.204115455804285],[-2.912398174023351,35.210548767785475],[-2.9118852739579366,35.20580689747508],[-2.9116726481481945,35.20384112659215],[-2.91132014011184,35.200582114740754],[-2.9111927391957875,35.199404266145905],[-2.9104995487227914,35.192995572630345],[-2.9103053591621415,35.19120024879569],[-2.90982,35.186713],[-2.9070976559143595,35.179066116410006],[-2.905141,35.17357],[-2.903888389744405,35.17188644256537],[-2.9017179222609797,35.16896924892752],[-2.900863891260607,35.16782139768356],[-2.898248999394994,35.16430688020182],[-2.896392,35.161811],[-2.89573518402176,35.161122629130276],[-2.8928452422067568,35.15809384812227],[-2.8898127572967387,35.15491567593388],[-2.8721108928723798,35.140838273683556],[-2.8604621943330777,35.13390747781654],[-2.856068,35.131293],[-2.8530038683742553,35.1304728441364],[-2.8460905999953585,35.12862241527428],[-2.825153387249108,35.1230182898976],[-2.8157889765393684,35.12147278130871],[-2.8102971254225535,35.121024822394936],[-2.793707501611224,35.11967164116252],[-2.7922072082733513,35.1195492653443],[-2.78407161233159,35.11888566164429],[-2.7830680143174096,35.118803800234225],[-2.7821193470485075,35.1187264194112],[-2.761984139006976,35.11708403222133],[-2.7528692536959274,35.116340549917034],[-2.748118,35.115953],[-2.7516562327809115,35.11831837998431],[-2.7570519926572428,35.12192555430039],[-2.761223180729096,35.12471407766414],[-2.7589172577400407,35.1231725216328],[-2.7587996365743654,35.123093889511],[-2.767286001938385,35.1287671959367],[-2.7749224154471612,35.133872292402664],[-2.779576621429067,35.136983722982315],[-2.7834266942613577,35.13955757433115],[-2.7941060570444973,35.14732726877535],[-2.801031635708484,35.15386588389051],[-2.8038509509442364,35.156527671173464],[-2.8066265606479384,35.15914819495104],[-2.812664834443655,35.164849082952706],[-2.81710809627745,35.16904407955828],[-2.8310847654210702,35.182239808688806],[-2.834902430022676,35.18584416302218],[-2.844201020886965,35.19462319936338],[-2.8445238555523393,35.19492799578908],[-2.843360679307808,35.193829811486644],[-2.7834333870000263,35.16228571028129],[-2.7880473791441225,35.142646595379865],[-2.770937192299215,35.13120809034167],[-2.748118,35.115953],[-2.732888019165854,35.129889141944],[-2.7307820639133458,35.12889126799654],[-2.7255507823245204,35.12641250706225],[-2.718332,35.122992],[-2.714879771317371,35.122003737229534],[-2.712648502836485,35.1213649963542],[-2.6998778310177496,35.1177091610453],[-2.6948585898247193,35.11627231266036],[-2.688929574218435,35.1145750249289],[-2.6781661689479774,35.11149380589905],[-2.6702313198898713,35.10922231213826],[-2.650347798137871,35.10630862025307],[-2.6399904963757024,35.105099442918416],[-2.63712297693718,35.104764670446656],[-2.634437757614053,35.10445118085075],[-2.6226647279089894,35.103076722424575],[-2.604222690508469,35.100923681590054],[-2.5961314407479468,35.0999790575901],[-2.590910731606237,35.09936955877372],[-2.5791016383484417,35.09799089005884],[-2.563222,35.096137],[-2.535769008406315,35.09806620051999],[-2.5311582591066295,35.098390211107905],[-2.5305208610137604,35.098435002901475],[-2.529744160455386,35.09848958387914],[-2.5211095006340223,35.0990963662096],[-2.517486,35.099351],[-2.5079692929818664,35.10133781438202],[-2.501351255514344,35.10271947003205],[-2.4970075928212614,35.10362630172213],[-2.4936569659964216,35.10432581611841],[-2.493316,35.104397],[-2.488032295956232,35.10709213830669],[-2.4839788744362625,35.109159727922076],[-2.471352347660556,35.11812773752274],[-2.458186952200781,35.13053049194179],[-2.4410439447788077,35.14248417937902],[-2.4248283416688987,35.147540986301834],[-2.4213086829630974,35.148243502306634],[-2.4186537689873946,35.148773417197596],[-2.420980626239402,35.14830898169488],[-2.421401950477466,35.14822488631939],[-2.403367851840664,35.14490322593496],[-2.366202097588359,35.13308066597017],[-2.3455964871072363,35.12652594723985],[-2.3441489126962036,35.12606546861854],[-2.3546754555530827,35.12941399972335],[-2.3569090104483705,35.130124501560736],[-2.3718,35.0826],[-2.3797,35.0781],[-2.3854,35.079],[-2.3919,35.0837],[-2.3975,35.0854],[-2.4137,35.0743],[-2.4155,35.0706],[-2.4134,35.065],[-2.4032,35.0631],[-2.3998,35.0599],[-2.4009,35.0532],[-2.4085,35.0449],[-2.4291,35.0375],[-2.4341,35.0334],[-2.4366,35.0151],[-2.4569,34.9952],[-2.4575,34.9715],[-2.4614,34.9649],[-2.4844,34.9485],[-2.5014,34.9413],[-2.517,34.9392],[-2.5459,34.944],[-2.5536,34.9414],[-2.5565,34.932],[-2.5603,34.9257],[-2.5702,34.9229],[-2.5987,34.9232],[-2.6148,34.9181],[-2.6327,34.908],[-2.6453,34.8988],[-2.6483,34.8831],[-2.655,34.8778],[-2.6608,34.8805],[-2.6739,34.8919],[-2.6778,34.8891],[-2.6797,34.8827],[-2.6655,34.8698],[-2.6673,34.8636],[-2.684,34.8628],[-2.6884,34.8607],[-2.694,34.8529],[-2.7027,34.8517],[-2.7102,34.8589],[-2.7166,34.8593],[-2.7237,34.8395],[-2.7285,34.8329],[-2.7367,34.8287],[-2.7521,34.8249],[-2.7595,34.8213],[-2.7616,34.8116],[-2.77,34.8051],[-2.7766,34.8032],[-2.7827,34.7972],[-2.7885,34.7658],[-2.7938,34.7621],[-2.801,34.7613],[-2.8085,34.7571],[-2.8091,34.7479],[-2.8145,34.7425],[-2.8411,34.7318],[-2.8487,34.7143],[-2.856,34.713],[-2.8599,34.708],[-2.8618,34.7006],[-2.8694,34.6953],[-2.8995,34.6836],[-2.9373,34.6758],[-2.9543,34.6686],[-2.9622,34.6678],[-2.9757,34.6578],[-2.9786,34.6604],[-3.0042,34.6629],[-3.0145,34.6677],[-3.0286,34.6829],[-3.0359,34.687],[-3.0471,34.6901],[-3.0775,34.7067],[-3.1098,34.7058],[-3.1209,34.7171],[-3.1332,34.7341],[-3.1451,34.7448],[-3.1665,34.7547],[-3.1979,34.7569],[-3.2357,34.7549],[-3.2757,34.7574],[-3.2938,34.7564],[-3.3068,34.7494],[-3.3106,34.7385],[-3.3058,34.7216],[-3.3103,34.711],[-3.3211,34.6957],[-3.3424,34.6816],[-3.3732,34.6716],[-3.387,34.6647],[-3.4085,34.6401],[-3.417,34.6358],[-3.4274,34.6381]]]]}},{"type":"Feature","properties":{"name":"Gomara","name_alt":"Tanger-Tétouan","admin":"Morocco","iso_a2":"MA","name_zh":"戈马拉","historicalRegion":"Gomara"},"geometry":{"type":"MultiPolygon","coordinates":[[[[-5.2049,34.7422],[-5.2149,34.7447],[-5.2272,34.7432],[-5.2374,34.7397],[-5.2585,34.7288],[-5.2776,34.7251],[-5.3004,34.7146],[-5.3266,34.7169],[-5.3554,34.7252],[-5.4093,34.7336],[-5.4402,34.7456],[-5.4491,34.7498],[-5.4583,34.7569],[-5.4767,34.7764],[-5.4853,34.7888],[-5.4916,34.8022],[-5.4981,34.8091],[-5.5273,34.822],[-5.5304,34.8294],[-5.5413,34.8392],[-5.5486,34.8411],[-5.5697,34.8265],[-5.581,34.8221],[-5.5956,34.821],[-5.6044,34.8257],[-5.6144,34.8277],[-5.6414,34.825],[-5.657,34.8262],[-5.6664,34.83],[-5.6741,34.8356],[-5.6886,34.856],[-5.7098,34.8796],[-5.723,34.8876],[-5.748,34.8945],[-5.7671,34.9122],[-5.7708,34.9134],[-5.7662,34.9259],[-5.7552,34.9381],[-5.7388,34.9465],[-5.7226,34.9425],[-5.7096,34.9482],[-5.7063,34.9633],[-5.6899,34.9703],[-5.6869,34.9762],[-5.6902,34.9804],[-5.6804,34.9893],[-5.6489,34.9947],[-5.6385,35.005],[-5.632,35.0173],[-5.6412,35.0298],[-5.6325,35.0379],[-5.6209,35.0322],[-5.6145,35.0211],[-5.6083,35.0196],[-5.5981,35.0253],[-5.5913,35.027],[-5.5818,35.0246],[-5.5649,35.01],[-5.5449,35.0014],[-5.5235,35.0056],[-5.5064,35.0148],[-5.4949,35.0242],[-5.4879,35.0328],[-5.4925,35.047],[-5.5102,35.0749],[-5.5167,35.125],[-5.5212,35.1439],[-5.5352,35.164],[-5.548,35.1881],[-5.5514,35.2047],[-5.5516,35.218],[-5.5401,35.2297],[-5.5224,35.2381],[-5.4985,35.2468],[-5.4961,35.2536],[-5.4846,35.2626],[-5.4715,35.2669],[-5.4546,35.2688],[-5.4396,35.2621],[-5.4265,35.2494],[-5.4154,35.2418],[-5.407,35.2237],[-5.3801,35.2181],[-5.3671,35.2233],[-5.3492,35.2367],[-5.3221,35.2406],[-5.3135,35.2464],[-5.3047,35.2572],[-5.2967,35.2616],[-5.2708,35.262],[-5.26,35.2677],[-5.2461,35.2798],[-5.243,35.2898],[-5.2136,35.3348],[-5.1983,35.3552],[-5.1896,35.3637],[-5.1827,35.3691],[-5.1604,35.3791],[-5.1466,35.3875],[-5.1361,35.3984],[-5.091541355842328,35.44695559751092],[-5.092848522398457,35.44848114330582],[-5.082793688635865,35.43674651829343],[-5.081037183043813,35.434696565510365],[-5.078101023407642,35.43126988207427],[-5.077232473663359,35.43025622975595],[-5.077070603847164,35.430067317473686],[-5.078115370468836,35.43128662599934],[-5.058467993968273,35.41244133316762],[-5.040825835819694,35.40608902587474],[-5.029358362446163,35.40443175476871],[-5.021823930617712,35.40280878116988],[-5.017012478914771,35.401546530698326],[-5.013298938421099,35.40057230950093],[-5.007838466757318,35.3990234175195],[-5.002346924497247,35.39585798704645],[-4.998247770414371,35.39349515587204],[-4.981452228484864,35.38257319594246],[-4.966478098767874,35.37131137856408],[-4.964078371769325,35.3695065800398],[-4.952542967743882,35.359993821799236],[-4.949768590875005,35.35683100461976],[-4.935269624242094,35.34030203868666],[-4.9310410758848935,35.335481451570885],[-4.9260680727787225,35.32990812835349],[-4.921376846287651,35.325595019471386],[-4.89581700535009,35.31070192920393],[-4.888740764427712,35.308702323155046],[-4.87719138938645,35.30543869767272],[-4.86717185200436,35.30260737412452],[-4.851631937990025,35.2916772715514],[-4.8421594681041,35.284360249450486],[-4.837587864513285,35.28082890810938],[-4.828499420776157,35.2738085275235],[-4.814787992539847,35.26321711634475],[-4.806198575831951,35.25790729031992],[-4.794062693659507,35.25217162576136],[-4.788027737633703,35.24931938289201],[-4.779179416738005,35.24513748660766],[-4.7641839697468,35.239451702793396],[-4.747994593219223,35.23539399924553],[-4.732493204014734,35.231508732764475],[-4.728539286886639,35.23051772341144],[-4.722327708735749,35.228960854148575],[-4.706894899666702,35.2250927765851],[-4.6978127556358755,35.22281642900659],[-4.688214685950788,35.22041076987898],[-4.679015110942501,35.218104989413234],[-4.673463843528432,35.21671362036064],[-4.6669967108209685,35.2150926989319],[-4.66222535256469,35.213896806224625],[-4.658955569526788,35.21307726816452],[-4.659001289617087,35.213088727442916],[-4.656789830338694,35.21253444753321],[-4.655238200143016,35.212145547112044],[-4.656203638759598,35.21238752454045],[-4.650159064909361,35.2108725132171],[-4.648440912067141,35.21044187557816],[-4.648486632157436,35.21045333485655],[-4.628285,35.20539],[-4.61130164016813,35.20224294007406],[-4.597805629594846,35.199742094867005],[-4.591156616936031,35.19851001585008],[-4.58757944637032,35.197847157013726],[-4.5726150100382466,35.19507420876549],[-4.563920889105,35.19346316596529],[-4.558638997234878,35.19248441792002],[-4.549837385679516,35.190853456833175],[-4.518809199666842,35.185103854767284],[-4.5065919598506445,35.18283996904551],[-4.489918465597305,35.17951583437429],[-4.474684364559296,35.17581353734355],[-4.464666485229232,35.17337892273745],[-4.450547026524111,35.16994751382732],[-4.471358895630782,35.175005358790116],[-4.4858,35.1049],[-4.4686,35.0899],[-4.4634,35.068],[-4.4637,35.0389],[-4.4746,35.01],[-4.4881,34.9868],[-4.5198,34.9681],[-4.5549,34.9508],[-4.6074,34.9454],[-4.656,34.9362],[-4.671,34.9279],[-4.7072,34.8961],[-4.7543,34.8681],[-4.7619,34.8601],[-4.7838,34.8593],[-4.8005,34.8483],[-4.8133,34.8241],[-4.8202,34.8201],[-4.8416,34.8175],[-4.869,34.8036],[-4.8809,34.8007],[-4.9111,34.8018],[-4.9851,34.7857],[-5.0116,34.7927],[-5.0282,34.7835],[-5.0517,34.7836],[-5.0879,34.7734],[-5.117,34.7581],[-5.1467,34.7299],[-5.1622,34.7313],[-5.2049,34.7422]]],[[[-4.865806909102474,35.302221668194925],[-4.871178017466754,35.30373943743035],[-4.872146249565212,35.304013040715205],[-4.866775141200935,35.302495271479785],[-4.865806909102474,35.302221668194925]]]]}},{"type":"Feature","properties":{"name":"Lucus","name_alt":"Tanger-Tétouan","admin":"Morocco","iso_a2":"MA","name_zh":"卢库斯","historicalRegion":"Lucus"},"geometry":{"type":"MultiPolygon","coordinates":[[[[-5.7457,35.3993],[-5.7377,35.3886],[-5.7164,35.3827],[-5.6635,35.384],[-5.6374,35.3909],[-5.5764,35.4178],[-5.5578,35.416],[-5.5336,35.3962],[-5.5174,35.3927],[-5.4814,35.3717],[-5.4776,35.3665],[-5.4863,35.3602],[-5.4904,35.3534],[-5.4873,35.3455],[-5.4744,35.342],[-5.4628,35.3349],[-5.4711,35.2996],[-5.4786,35.2947],[-5.4914,35.2802],[-5.4957,35.2674],[-5.4955,35.2555],[-5.4985,35.2468],[-5.5224,35.2381],[-5.5401,35.2297],[-5.5516,35.218],[-5.5514,35.2047],[-5.548,35.1881],[-5.5352,35.164],[-5.5212,35.1439],[-5.5167,35.125],[-5.5102,35.0749],[-5.4925,35.047],[-5.4879,35.0328],[-5.4949,35.0242],[-5.5064,35.0148],[-5.5235,35.0056],[-5.5449,35.0014],[-5.5649,35.01],[-5.5818,35.0246],[-5.5913,35.027],[-5.5981,35.0253],[-5.6083,35.0196],[-5.6145,35.0211],[-5.6209,35.0322],[-5.6325,35.0379],[-5.6412,35.0298],[-5.632,35.0173],[-5.6385,35.005],[-5.6489,34.9947],[-5.6804,34.9893],[-5.6902,34.9804],[-5.6869,34.9762],[-5.6899,34.9703],[-5.7063,34.9633],[-5.7096,34.9482],[-5.7226,34.9425],[-5.7388,34.9465],[-5.7552,34.9381],[-5.7662,34.9259],[-5.7708,34.9134],[-5.7771,34.9156],[-5.794,34.914],[-5.8118,34.9175],[-5.8243,34.9333],[-5.8342,34.939],[-5.8701,34.9401],[-5.889,34.9427],[-5.9497,34.9621],[-6.0608,34.9758],[-6.0881,34.9826],[-6.1234,34.979],[-6.1547,34.9794],[-6.250600093376541,34.99748654367067],[-6.253483165425838,34.98938125131162],[-6.253855074448054,34.98833568904176],[-6.246261136866146,35.009684820525564],[-6.234371488201761,35.04311065131418],[-6.234097060495254,35.04388216057743],[-6.23002576833145,35.05532794226533],[-6.225412186197932,35.068298284794146],[-6.216299882734563,35.09391605721609],[-6.213818582578666,35.10089183265639],[-6.206819062679638,35.1205698546359],[-6.202758423623828,35.130046038504794],[-6.200803017028778,35.13410372430368],[-6.199840884933673,35.13610025522919],[-6.18958286961306,35.15738677599503],[-6.188415731865348,35.15980871641204],[-6.187250537337568,35.16222662443192],[-6.171380768917203,35.19515815596809],[-6.170041711141648,35.19793684953162],[-6.169732648824119,35.19857818815653],[-6.16899384100957,35.20011129640358],[-6.168080725993359,35.20200611144788],[-6.164107795397954,35.21025038355872],[-6.1543525235366285,35.23049365582556],[-6.152940384096626,35.23342400195728],[-6.146151668004349,35.24751134161852],[-6.144565665316573,35.25080247329388],[-6.142166441288129,35.255781129545326],[-6.139902416329441,35.260479232715504],[-6.137151219113883,35.26618827241076],[-6.128549373315602,35.28403805752872],[-6.122106968155009,35.29740676355486],[-6.108659516738682,35.325311718351145],[-6.1042537329690205,35.33445420885945],[-6.101908828023185,35.33932014698328],[-6.0375,35.3257],[-6.0083,35.3266],[-5.9859,35.3221],[-5.9715,35.3113],[-5.9534,35.3147],[-5.9395,35.3075],[-5.9225,35.3119],[-5.9195,35.3201],[-5.9181,35.3311],[-5.9212,35.344],[-5.9198,35.3559],[-5.9224,35.3638],[-5.9131,35.3769],[-5.9242,35.3831],[-5.9534,35.384],[-5.9589,35.391],[-5.9679,35.4127],[-5.9487,35.4161],[-5.9409,35.4141],[-5.9301,35.4167],[-5.9221,35.4221],[-5.9169,35.428],[-5.9079,35.4297],[-5.9018,35.4259],[-5.8959,35.4341],[-5.8882,35.45],[-5.8792,35.4512],[-5.863,35.4455],[-5.8472,35.4484],[-5.8436,35.4553],[-5.8429,35.4631],[-5.8449,35.4718],[-5.838,35.4768],[-5.8229,35.4733],[-5.8187,35.4751],[-5.8154,35.4576],[-5.8057,35.4409],[-5.7886,35.4245],[-5.7719,35.4178],[-5.7671,35.4071],[-5.7502,35.4054],[-5.7457,35.3993]]]]}},{"type":"Feature","properties":{"name":"Yebala","name_alt":"Tanger-Tétouan","admin":"Morocco","iso_a2":"MA","name_zh":"耶巴拉","historicalRegion":"Yebala"},"geometry":{"type":"MultiPolygon","coordinates":[[[[-5.3561,35.2322],[-5.3671,35.2233],[-5.3801,35.2181],[-5.407,35.2237],[-5.4154,35.2418],[-5.4265,35.2494],[-5.4396,35.2621],[-5.4546,35.2688],[-5.4715,35.2669],[-5.4846,35.2626],[-5.4961,35.2536],[-5.4957,35.2674],[-5.4914,35.2802],[-5.4786,35.2947],[-5.4711,35.2996],[-5.4628,35.3349],[-5.4744,35.342],[-5.4873,35.3455],[-5.4904,35.3534],[-5.4863,35.3602],[-5.4776,35.3665],[-5.4814,35.3717],[-5.5174,35.3927],[-5.5336,35.3962],[-5.5578,35.416],[-5.5764,35.4178],[-5.6374,35.3909],[-5.6635,35.384],[-5.7164,35.3827],[-5.7288,35.3852],[-5.7377,35.3886],[-5.7502,35.4054],[-5.7671,35.4071],[-5.7719,35.4178],[-5.7886,35.4245],[-5.8057,35.4409],[-5.8154,35.4576],[-5.8187,35.4751],[-5.8121,35.4778],[-5.8063,35.4841],[-5.8039,35.4905],[-5.8105,35.4961],[-5.8099,35.4993],[-5.7984,35.5056],[-5.7863,35.5169],[-5.7716,35.5176],[-5.7553,35.5159],[-5.7422,35.5194],[-5.7353,35.5257],[-5.7234,35.5278],[-5.704,35.5358],[-5.7005,35.5398],[-5.6995,35.5587],[-5.7038,35.5675],[-5.7185,35.5885],[-5.7306,35.6574],[-5.7349,35.6644],[-5.745,35.6677],[-5.7546,35.6734],[-5.7498,35.6849],[-5.7452,35.6876],[-5.7321,35.6906],[-5.7278,35.6832],[-5.7128,35.6668],[-5.6999,35.6643],[-5.6885,35.6645],[-5.6749,35.668],[-5.6629,35.6738],[-5.6324,35.6691],[-5.6149,35.6707],[-5.5982,35.6828],[-5.5883,35.6951],[-5.566,35.7049],[-5.559,35.7149],[-5.5589,35.7227],[-5.5627,35.7298],[-5.5647,35.7386],[-5.5601,35.768],[-5.5603,35.7801],[-5.582026615168403,35.83057377052045],[-5.57671063121296,35.83315656693137],[-5.572472750646273,35.83521556161782],[-5.563926037862231,35.83936802319197],[-5.569604044286192,35.83660933642093],[-5.565059370692069,35.83881738797753],[-5.5632329433667635,35.83970476649111],[-5.560895924318195,35.84084021845287],[-5.558984016911861,35.84176912787556],[-5.557079373720705,35.842694507944316],[-5.559088602949105,35.84171831424559],[-5.5519874881965245,35.84516842505296],[-5.546984864426408,35.84759897390843],[-5.534827420089094,35.85479102135202],[-5.5225965551645535,35.86389502109632],[-5.508598339578806,35.87706640880026],[-5.507774975865296,35.877841139166826],[-5.505475660660397,35.88000464149552],[-5.5027867036472005,35.882534770791146],[-5.498190767695913,35.88685924014269],[-5.490999862302801,35.89362540275069],[-5.487577738537613,35.896845393084895],[-5.484871102482309,35.89882055141263],[-5.480508459357264,35.90196115710821],[-5.478746135148926,35.903229829627946],[-5.477858142413138,35.90386908316387],[-5.478845943480934,35.903157979007354],[-5.476617018242544,35.9047625510748],[-5.473921867419765,35.906702752411896],[-5.464311821891627,35.91213883786662],[-5.456435188893906,35.915243030659994],[-5.452181161124333,35.916919549338594],[-5.454002324436452,35.91620182616542],[-5.435452,35.914417],[-5.431674287790003,35.91269135496623],[-5.413697636465186,35.91039885747451],[-5.401263621824408,35.92511157769574],[-5.396112900887478,35.91775756659338],[-5.395244847960453,35.915624991975484],[-5.393955650330372,35.91245777709979],[-5.392233896416577,35.90822788675496],[-5.392334075447403,35.90847399992587],[-5.380529288327129,35.88551592554037],[-5.378977073152429,35.88272339209892],[-5.354069119094006,35.85725602612072],[-5.3542021196500915,35.85735471169346],[-5.35233170478686,35.855966875676316],[-5.34863643036897,35.853225005393305],[-5.348505029775832,35.85312750698297],[-5.345644902437424,35.832730081137406],[-5.3452585020176215,35.82934460600624],[-5.3363243959860185,35.786803582069936],[-5.333849733362233,35.77823629808322],[-5.333074188188624,35.77555136007067],[-5.329209615713852,35.76217220706599],[-5.32834823611199,35.75919011019404],[-5.327126281219456,35.753585210826756],[-5.3269477197309465,35.752007261340076],[-5.328109461086901,35.75836347086583],[-5.328286582409605,35.75897666502698],[-5.327205522407809,35.75428546592391],[-5.327147774977853,35.75377515136383],[-5.326966038700536,35.752169146239794],[-5.325172893550991,35.736323106358086],[-5.32360026702778,35.72242579156895],[-5.323566129882092,35.72212412130419],[-5.323277309080415,35.71957180927122],[-5.322621,35.713772],[-5.31684368832819,35.698821311321915],[-5.311945887329396,35.69179873626981],[-5.307535537772838,35.68773097085046],[-5.304799,35.685207],[-5.289296689864327,35.68555286528768],[-5.276763,35.685207],[-5.27582191717892,35.681248055782326],[-5.275952498445728,35.675201346308796],[-5.277045147724827,35.66720894594341],[-5.277227630098954,35.66587414234124],[-5.277394291175599,35.66365768994871],[-5.260420386195696,35.606058802711736],[-5.259999,35.604722],[-5.2526497758670825,35.59075784891807],[-5.25171923514087,35.58898974237325],[-5.24942,35.584621],[-5.248996276909452,35.58429582138702],[-5.242439442020832,35.579263897184305],[-5.228424,35.568508],[-5.227349548707411,35.56787867380431],[-5.223332084001235,35.56552556966893],[-5.221780208291922,35.5646166070728],[-5.218182899072537,35.56250959585566],[-5.210802105048805,35.55818652690301],[-5.20617409259096,35.55547581354281],[-5.200929161528092,35.552403759429964],[-5.199279431344653,35.55143748164016],[-5.195687438808642,35.5493335845038],[-5.185837504090846,35.54349582057044],[-5.181820507861074,35.54035598199197],[-5.172317971959475,35.53292843486211],[-5.166056110999173,35.52803392376686],[-5.162955911072379,35.525610688400356],[-5.157854989921087,35.521623612460914],[-5.14600000385135,35.51051227364862],[-5.140290863364163,35.50384934670801],[-5.137425532824677,35.5005053252939],[-5.133770259307699,35.496239390614896],[-5.133043267066855,35.495390944829055],[-5.131328594379339,35.49338981368337],[-5.127680091633279,35.489131780920964],[-5.11467354289429,35.47395231840959],[-5.112429716125027,35.47133363108449],[-5.105181515688198,35.46287452413662],[-5.102344174441658,35.45956316799226],[-5.099796517593078,35.45658989180647],[-5.096634530504876,35.45289965349422],[-5.081538448522539,35.435281573931526],[-5.081037183043813,35.434696565510365],[-5.082793688635865,35.43674651829343],[-5.092848522398457,35.44848114330582],[-5.091541355842328,35.44695559751092],[-5.1361,35.3984],[-5.1466,35.3875],[-5.1604,35.3791],[-5.1827,35.3691],[-5.1896,35.3637],[-5.1983,35.3552],[-5.2136,35.3348],[-5.243,35.2898],[-5.2461,35.2798],[-5.26,35.2677],[-5.2708,35.262],[-5.2967,35.2616],[-5.3047,35.2572],[-5.3135,35.2464],[-5.3221,35.2406],[-5.3492,35.2367],[-5.3561,35.2322]]],[[[-5.325392793949944,35.73826636816971],[-5.325311848387309,35.737551051501626],[-5.325002798165964,35.73481997190435],[-5.325468036046315,35.73893128325491],[-5.325599376966291,35.74009194415097],[-5.325392793949944,35.73826636816971]]]]}},{"type":"Feature","properties":{"name":"Rif","name_alt":"Taza-AlHoceima-Taounate","admin":"Morocco","iso_a2":"MA","name_zh":"里夫","historicalRegion":"Rif"},"geometry":{"type":"MultiPolygon","coordinates":[[[[-4.4117,34.6495],[-4.4181,34.6487],[-4.4395,34.6571],[-4.4735,34.6602],[-4.4932,34.6822],[-4.5031,34.6856],[-4.5544,34.6769],[-4.5873,34.7037],[-4.5985,34.704],[-4.6123,34.6962],[-4.6238,34.6874],[-4.6356,34.6863],[-4.6494,34.6903],[-4.6806,34.7079],[-4.7181,34.7184],[-4.729,34.7269],[-4.7373,34.7407],[-4.7311,34.7565],[-4.7372,34.7699],[-4.7407,34.7918],[-4.7481,34.8029],[-4.7629,34.8115],[-4.7871,34.8207],[-4.813,34.8247],[-4.8005,34.8483],[-4.7838,34.8593],[-4.7619,34.8601],[-4.7543,34.8681],[-4.7072,34.8961],[-4.671,34.9279],[-4.656,34.9362],[-4.6074,34.9454],[-4.5549,34.9508],[-4.5198,34.9681],[-4.4881,34.9868],[-4.4746,35.01],[-4.4637,35.0389],[-4.4634,35.068],[-4.4686,35.0899],[-4.4858,35.1049],[-4.471358895630782,35.175005358790116],[-4.450501131775225,35.169936360166716],[-4.424464795658322,35.16360882894866],[-4.414657198696242,35.16122531862398],[-4.409728758168327,35.160027574780266],[-4.404535483834826,35.15876546918593],[-4.385687721301845,35.15418495504284],[-4.377322052931636,35.152151872218326],[-4.3755308545818865,35.15181094149785],[-4.369939067113052,35.15147446162798],[-4.369853706676214,35.15146932515439],[-4.365734812124153,35.15122147505088],[-4.365518967501407,35.151208486830036],[-4.354909245124401,35.150570058058435],[-4.353464909766129,35.1504831467128],[-4.34578643063231,35.15055187725727],[-4.3392563383641845,35.15202281304841],[-4.324347844598588,35.156185316861645],[-4.319413541485326,35.1587622251476],[-4.3176805780989715,35.15966725420785],[-4.313659488670855,35.16176724247935],[-4.312117709048357,35.16257242703999],[-4.3098976675656315,35.16373182952514],[-4.304909261470845,35.16633699274765],[-4.302153206370452,35.16777632492116],[-4.296644440301358,35.170653242816755],[-4.29442439881863,35.17181264530191],[-4.290628535433886,35.17379501071076],[-4.289431585665203,35.17442011008264],[-4.284663998555146,35.17690995200073],[-4.283417352863582,35.177561004750935],[-4.284207467343909,35.177148372509976],[-4.2826360525005365,35.17796903387544],[-4.268712232255088,35.18498045251106],[-4.259206878292065,35.18634310527561],[-4.252276234311858,35.18733665703775],[-4.2504710252123665,35.187595445209084],[-4.244927263312642,35.1883901786307],[-4.24098143021401,35.18895583882612],[-4.218934517216363,35.192116403604956],[-4.215881868376057,35.19255402017322],[-4.214928387475214,35.192690707706426],[-4.20896629855648,35.19354541095885],[-4.20728545763603,35.19378637016309],[-4.2016995548725875,35.19458714474473],[-4.196742341044725,35.195297792780906],[-4.190456144964767,35.19619895885007],[-4.176793911182502,35.198157526695695],[-4.164823826059111,35.19987351430107],[-4.159966652923352,35.20056982086967],[-4.156902696344625,35.201009058473936],[-4.152493998549132,35.2016410732587],[-4.150855298492399,35.20187599130292],[-4.1371087829827005,35.2038466414686],[-4.132823768562211,35.20446092545728],[-4.128739392498966,35.20547114009383],[-4.122730818499788,35.20770032011655],[-4.115969545877096,35.21020875121197],[-4.107387664561739,35.21339262785028],[-4.096703274271975,35.217356534992334],[-4.096246715625115,35.21752591817958],[-4.089991490665511,35.219846605670405],[-4.080842645923301,35.22324082565223],[-4.079236251817139,35.22383679761673],[-4.0663856238418195,35.22860437860448],[-4.06196208440643,35.230245511049624],[-4.053764594184626,35.23328677865179],[-4.051191286868442,35.23424147526738],[-4.044765425135993,35.236236387102636],[-4.044947833254293,35.23620536176884],[-4.035629718787066,35.23779025620462],[-4.030661143538417,35.238635348555974],[-4.025123401478567,35.239577249045425],[-4.023674127444698,35.239823752386876],[-4.016364479978768,35.24106703176888],[-4.0184028685113855,35.2407203274378],[-4.010931332987026,35.24199114194871],[-4.004579033421631,35.24307158845653],[-3.996159273816404,35.244503683994296],[-3.993510105980517,35.244954274226615],[-3.9816802021384534,35.246966392541005],[-3.9666998028557203,35.24951437062739],[-3.9511203401898314,35.25441033609609],[-3.942071313455522,35.257947461322885],[-3.929844917116272,35.26272657140777],[-3.9154528198336007,35.262305525430264],[-3.9134741988502384,35.260002680825195],[-3.9112517318194433,35.252705196897935],[-3.9153204089064695,35.25014542693374],[-3.9192770389104474,35.249049965344895],[-3.918576631958227,35.24924388514835],[-3.9204572441295507,35.24872320507588],[-3.922500608939611,35.24815746411472],[-3.9204142727824105,35.248735102438076],[-3.926790212332364,35.245927106821725],[-3.9278171551465086,35.241537285627],[-3.925046,35.237842],[-3.9228216147946875,35.23549251637153],[-3.923682471518528,35.236401787290205],[-3.921930353169744,35.23455113059379],[-3.9213359847709928,35.23392333518371],[-3.9180483656053857,35.23041245852822],[-3.9172656419628322,35.22951398679243],[-3.9139675955673243,35.22572822984249],[-3.911769211965027,35.22320475230367],[-3.9085109658800805,35.21946468127935],[-3.9051956083045423,35.215659053195935],[-3.8980280423030393,35.21186055298548],[-3.8790746490740533,35.20788354146083],[-3.8486549984579153,35.20593801723909],[-3.8335219535192926,35.20592746394277],[-3.806153630015485,35.20789078822836],[-3.799989816616575,35.20832753475575],[-3.8025,35.1466],[-3.8105,35.1221],[-3.811,35.1108],[-3.8036,35.088],[-3.8014,35.0755],[-3.7991,35.037],[-3.8012,35.0235],[-3.7932,35.0142],[-3.7926,34.9995],[-3.799,34.9591],[-3.7996,34.9478],[-3.796,34.9363],[-3.7991,34.9059],[-3.797,34.8934],[-3.7872,34.8903],[-3.798,34.8761],[-3.8296,34.8512],[-3.858,34.8344],[-3.9012,34.8221],[-3.9747,34.8199],[-3.9951,34.8156],[-4.0056,34.8082],[-4.0273,34.7997],[-4.043,34.7779],[-4.0667,34.7637],[-4.0804,34.7477],[-4.129,34.7283],[-4.1429,34.7196],[-4.1795,34.7252],[-4.1886,34.7328],[-4.1968,34.748],[-4.2037,34.7678],[-4.2162,34.7759],[-4.2296,34.7758],[-4.2653,34.7573],[-4.2793,34.7454],[-4.2915,34.7235],[-4.2955,34.7108],[-4.3044,34.7006],[-4.3188,34.6906],[-4.3432,34.6835],[-4.3553,34.6775],[-4.3606,34.6717],[-4.376,34.6649],[-4.3856,34.6633],[-4.4117,34.6495]]],[[[-4.360021690114689,35.150877694003945],[-4.359023010542493,35.150817599521744],[-4.360089063499631,35.1508817481258],[-4.361334986975723,35.15095672024723],[-4.360021690114689,35.150877694003945]]]]}}]}